0 THORAD DELTA 1 DEB
1 08564U 74089DB  13282.80308022  .00000498  00000-0  29216-2 0    73
2 08564 101.2360 246.4924 0061506 359.7421 071.7781 12.64307545787592
0 THORAD DELTA 1 DEB
1 08564U 74089DB  13287.86396940  .00000486  00000-0  28592-2 0    95
2 08564 101.2365 251.3830 0061257 350.3105 065.7398 12.64313356788233
0 THORAD DELTA 1 DEB
1 08564U 74089DB  13290.41754258  .00000511  00000-0  29943-2 0   102
2 08564 101.2371 253.8504 0061076 345.5935 168.0026 12.64317282788553
0 THORAD DELTA 1 DEB
1 08564U 74089DB  13292.84326703  .00000698  00000-0  40033-2 0   111
2 08564 101.2373 256.1946 0060880 341.0649 048.4587 12.64321411788862
0 THORAD DELTA 1 DEB
1 08564U 74089DB  13295.14593876  .00000695  00000-0  39878-2 0   127
2 08564 101.2374 258.4202 0060684 336.7646 088.8745 12.64323849789157
